SL-3 R/B                
1 10114U 77057B   26098.62336547  .00011456  00000+0  23334-3 0  9998
2 10114  97.5813 271.8882 0007520 166.0394 194.1064 15.46396652672952
SEASAT 1                
1 10967U 78064A   26098.51659520  .00000285  00000+0  11800-3 0  9993
2 10967 108.0068 188.0811 0002766 270.4567  89.6262 14.46187625510820
SL-14 R/B               
1 11267U 79011B   26098.42617968  .00000712  00000+0  67714-4 0  9991
2 11267  82.5225  68.3454 0015012 322.9923  37.0259 14.91951208533212
SL-8 R/B                
1 11574U 79089B   26098.22307190  .00000297  00000+0  97762-4 0  9992
2 11574  74.0707  36.3711 0016374 204.6618 155.3757 14.42371781440362
SL-14 R/B               
1 11672U 80005B   26098.45880445  .00000567  00000+0  54648-4 0  9991
2 11672  82.5108 278.9886 0017098  66.5267 293.7747 14.90967276480921
SL-8 R/B                
1 12139U 81003B   26098.45820445  .00018914  00000+0  47000-3 0  9991
2 12139  82.9365 262.4663 0258727  75.2849 287.6903 15.12378513319178
SL-3 R/B                
1 12465U 81046B   26098.62730933  .00011102  00000+0  25155-3 0  9990
2 12465  81.2297 253.7674 0018023 275.3487  84.5700 15.42785853443040
SL-3 R/B                
1 12904U 81103B   26098.56276414  .00004571  00000+0  20017-3 0  9998
2 12904  81.1602 178.3872 0013343 181.1643 178.9560 15.21744950977771
SL-3 R/B                
1 13068U 82013B   26098.55916688  .00003561  00000+0  15237-3 0  9990
2 13068  81.1719 125.7529 0023555  80.3436 280.0455 15.22291153408896
SL-3 R/B                
1 13154U 82039B   26098.60550941  .00001810  00000+0  10826-3 0  9990
2 13154  81.1542 181.4630 0027991 224.1546 135.7446 15.10259097386154
SL-3 R/B                
1 13403U 82079B   26098.58694308  .00004127  00000+0  16191-3 0  9999
2 13403  81.1465 157.7716 0025296  66.9060 293.4836 15.25197874382257
SL-14 R/B               
1 13553U 82092B   26098.47042642  .00000409  00000+0  43112-4 0  9999
2 13553  82.5647 113.5364 0019793 198.0923 279.0630 14.86694698333350
SL-3 R/B                
1 13819U 83010B   26098.64640820  .00011971  00000+0  23232-3 0  9992
2 13819  81.1029 325.4929 0015214 305.5274  54.4552 15.47386938362570
SL-3 R/B                
1 14208U 83075B   26098.60033218  .00009543  00000+0  24579-3 0  9996
2 14208  97.6143 104.3273 0023088 120.5347 239.8181 15.39171797334754
