[
  {
    "OBJECT_NAME": "SL-3 R/B",
    "OBJECT_ID": "1977-057B",
    "EPOCH": "2026-04-08T14:57:38.776608",
    "MEAN_MOTION": 15.46396652,
    "ECCENTRICITY": 0.00075202,
    "INCLINATION": 97.5813,
    "RA_OF_ASC_NODE": 271.8882,
    "ARG_OF_PERICENTER": 166.0394,
    "MEAN_ANOMALY": 194.1064,
    "EPHEMERIS_TYPE": 0,
    "CLASSIFICATION_TYPE": "U",
    "NORAD_CAT_ID": 10114,
    "ELEMENT_SET_NO": 999,
    "REV_AT_EPOCH": 67295,
    "BSTAR": 0.00023334159,
    "MEAN_MOTION_DOT": 0.00011456,
    "MEAN_MOTION_DDOT": 0
  },
  {
    "OBJECT_NAME": "SEASAT 1",
    "OBJECT_ID": "1978-064A",
    "EPOCH": "2026-04-08T12:23:53.825280",
    "MEAN_MOTION": 14.46187625,
    "ECCENTRICITY": 0.00027667,
    "INCLINATION": 108.0068,
    "RA_OF_ASC_NODE": 188.0811,
    "ARG_OF_PERICENTER": 270.4567,
    "MEAN_ANOMALY": 89.6262,
    "EPHEMERIS_TYPE": 0,
    "CLASSIFICATION_TYPE": "U",
    "NORAD_CAT_ID": 10967,
    "ELEMENT_SET_NO": 999,
    "REV_AT_EPOCH": 51082,
    "BSTAR": 0.00011799506,
    "MEAN_MOTION_DOT": 2.85e-6,
    "MEAN_MOTION_DDOT": 0
  },
  {
    "OBJECT_NAME": "SL-14 R/B",
    "OBJECT_ID": "1979-011B",
    "EPOCH": "2026-04-08T10:13:41.924352",
    "MEAN_MOTION": 14.91951208,
    "ECCENTRICITY": 0.00150129,
    "INCLINATION": 82.5225,
    "RA_OF_ASC_NODE": 68.3454,
    "ARG_OF_PERICENTER": 322.9923,
    "MEAN_ANOMALY": 37.0259,
    "EPHEMERIS_TYPE": 0,
    "CLASSIFICATION_TYPE": "U",
    "NORAD_CAT_ID": 11267,
    "ELEMENT_SET_NO": 999,
    "REV_AT_EPOCH": 53321,
    "BSTAR": 6.7714051e-5,
    "MEAN_MOTION_DOT": 7.12e-6,
    "MEAN_MOTION_DDOT": 0
  },
  {
    "OBJECT_NAME": "SL-8 R/B",
    "OBJECT_ID": "1979-089B",
    "EPOCH": "2026-04-08T05:21:13.412160",
    "MEAN_MOTION": 14.42371781,
    "ECCENTRICITY": 0.00163749,
    "INCLINATION": 74.0707,
    "RA_OF_ASC_NODE": 36.3711,
    "ARG_OF_PERICENTER": 204.6618,
    "MEAN_ANOMALY": 155.3757,
    "EPHEMERIS_TYPE": 0,
    "CLASSIFICATION_TYPE": "U",
    "NORAD_CAT_ID": 11574,
    "ELEMENT_SET_NO": 999,
    "REV_AT_EPOCH": 44036,
    "BSTAR": 9.7761853e-5,
    "MEAN_MOTION_DOT": 2.97e-6,
    "MEAN_MOTION_DDOT": 0
  },
  {
    "OBJECT_NAME": "SL-14 R/B",
    "OBJECT_ID": "1980-005B",
    "EPOCH": "2026-04-08T11:00:40.704480",
    "MEAN_MOTION": 14.90967276,
    "ECCENTRICITY": 0.00170981,
    "INCLINATION": 82.5108,
    "RA_OF_ASC_NODE": 278.9886,
    "ARG_OF_PERICENTER": 66.5267,
    "MEAN_ANOMALY": 293.7747,
    "EPHEMERIS_TYPE": 0,
    "CLASSIFICATION_TYPE": "U",
    "NORAD_CAT_ID": 11672,
    "ELEMENT_SET_NO": 999,
    "REV_AT_EPOCH": 48092,
    "BSTAR": 5.4648426e-5,
    "MEAN_MOTION_DOT": 5.67e-6,
    "MEAN_MOTION_DDOT": 0
  },
  {
    "OBJECT_NAME": "SL-8 R/B",
    "OBJECT_ID": "1981-003B",
    "EPOCH": "2026-04-08T10:59:48.864480",
    "MEAN_MOTION": 15.12378513,
    "ECCENTRICITY": 0.0258727,
    "INCLINATION": 82.9365,
    "RA_OF_ASC_NODE": 262.4663,
    "ARG_OF_PERICENTER": 75.2849,
    "MEAN_ANOMALY": 287.6903,
    "EPHEMERIS_TYPE": 0,
    "CLASSIFICATION_TYPE": "U",
    "NORAD_CAT_ID": 12139,
    "ELEMENT_SET_NO": 999,
    "REV_AT_EPOCH": 31917,
    "BSTAR": 0.00047000002,
    "MEAN_MOTION_DOT": 0.00018914,
    "MEAN_MOTION_DDOT": 0
  },
  {
    "OBJECT_NAME": "SL-3 R/B",
    "OBJECT_ID": "1981-046B",
    "EPOCH": "2026-04-08T15:03:19.526112",
    "MEAN_MOTION": 15.42785853,
    "ECCENTRICITY": 0.00180232,
    "INCLINATION": 81.2297,
    "RA_OF_ASC_NODE": 253.7674,
    "ARG_OF_PERICENTER": 275.3487,
    "MEAN_ANOMALY": 84.57,
    "EPHEMERIS_TYPE": 0,
    "CLASSIFICATION_TYPE": "U",
    "NORAD_CAT_ID": 12465,
    "ELEMENT_SET_NO": 999,
    "REV_AT_EPOCH": 44304,
    "BSTAR": 0.00025155126,
    "MEAN_MOTION_DOT": 0.00011102,
    "MEAN_MOTION_DDOT": 0
  },
  {
    "OBJECT_NAME": "SL-3 R/B",
    "OBJECT_ID": "1981-103B",
    "EPOCH": "2026-04-08T13:30:22.821696",
    "MEAN_MOTION": 15.2174495,
    "ECCENTRICITY": 0.00133432,
    "INCLINATION": 81.1602,
    "RA_OF_ASC_NODE": 178.3872,
    "ARG_OF_PERICENTER": 181.1643,
    "MEAN_ANOMALY": 178.956,
    "EPHEMERIS_TYPE": 0,
    "CLASSIFICATION_TYPE": "U",
    "NORAD_CAT_ID": 12904,
    "ELEMENT_SET_NO": 999,
    "REV_AT_EPOCH": 97777,
    "BSTAR": 0.00020016916,
    "MEAN_MOTION_DOT": 4.571e-5,
    "MEAN_MOTION_DDOT": 0
  },
  {
    "OBJECT_NAME": "SL-3 R/B",
    "OBJECT_ID": "1982-013B",
    "EPOCH": "2026-04-08T13:25:12.018432",
    "MEAN_MOTION": 15.22291153,
    "ECCENTRICITY": 0.0023555,
    "INCLINATION": 81.1719,
    "RA_OF_ASC_NODE": 125.7529,
    "ARG_OF_PERICENTER": 80.3436,
    "MEAN_ANOMALY": 280.0455,
    "EPHEMERIS_TYPE": 0,
    "CLASSIFICATION_TYPE": "U",
    "NORAD_CAT_ID": 13068,
    "ELEMENT_SET_NO": 999,
    "REV_AT_EPOCH": 40889,
    "BSTAR": 0.00015237289,
    "MEAN_MOTION_DOT": 3.561e-5,
    "MEAN_MOTION_DDOT": 0
  },
  {
    "OBJECT_NAME": "SL-3 R/B",
    "OBJECT_ID": "1982-039B",
    "EPOCH": "2026-04-08T14:31:56.013024",
    "MEAN_MOTION": 15.10259097,
    "ECCENTRICITY": 0.0027991,
    "INCLINATION": 81.1542,
    "RA_OF_ASC_NODE": 181.463,
    "ARG_OF_PERICENTER": 224.1546,
    "MEAN_ANOMALY": 135.7446,
    "EPHEMERIS_TYPE": 0,
    "CLASSIFICATION_TYPE": "U",
    "NORAD_CAT_ID": 13154,
    "ELEMENT_SET_NO": 999,
    "REV_AT_EPOCH": 38615,
    "BSTAR": 0.00010826203,
    "MEAN_MOTION_DOT": 1.81e-5,
    "MEAN_MOTION_DDOT": 0
  },
  {
    "OBJECT_NAME": "SL-3 R/B",
    "OBJECT_ID": "1982-079B",
    "EPOCH": "2026-04-08T14:05:11.882112",
    "MEAN_MOTION": 15.25197874,
    "ECCENTRICITY": 0.00252967,
    "INCLINATION": 81.1465,
    "RA_OF_ASC_NODE": 157.7716,
    "ARG_OF_PERICENTER": 66.906,
    "MEAN_ANOMALY": 293.4836,
    "EPHEMERIS_TYPE": 0,
    "CLASSIFICATION_TYPE": "U",
    "NORAD_CAT_ID": 13403,
    "ELEMENT_SET_NO": 999,
    "REV_AT_EPOCH": 38225,
    "BSTAR": 0.00016191262,
    "MEAN_MOTION_DOT": 4.127e-5,
    "MEAN_MOTION_DDOT": 0
  },
  {
    "OBJECT_NAME": "SL-14 R/B",
    "OBJECT_ID": "1982-092B",
    "EPOCH": "2026-04-08T11:17:24.842688",
    "MEAN_MOTION": 14.86694698,
    "ECCENTRICITY": 0.00197938,
    "INCLINATION": 82.5647,
    "RA_OF_ASC_NODE": 113.5364,
    "ARG_OF_PERICENTER": 198.0923,
    "MEAN_ANOMALY": 279.063,
    "EPHEMERIS_TYPE": 0,
    "CLASSIFICATION_TYPE": "U",
    "NORAD_CAT_ID": 13553,
    "ELEMENT_SET_NO": 999,
    "REV_AT_EPOCH": 33335,
    "BSTAR": 4.3112221e-5,
    "MEAN_MOTION_DOT": 4.09e-6,
    "MEAN_MOTION_DDOT": 0
  },
  {
    "OBJECT_NAME": "SL-3 R/B",
    "OBJECT_ID": "1983-010B",
    "EPOCH": "2026-04-08T15:30:49.668480",
    "MEAN_MOTION": 15.47386938,
    "ECCENTRICITY": 0.00152146,
    "INCLINATION": 81.1029,
    "RA_OF_ASC_NODE": 325.4929,
    "ARG_OF_PERICENTER": 305.5274,
    "MEAN_ANOMALY": 54.4552,
    "EPHEMERIS_TYPE": 0,
    "CLASSIFICATION_TYPE": "U",
    "NORAD_CAT_ID": 13819,
    "ELEMENT_SET_NO": 999,
    "REV_AT_EPOCH": 36257,
    "BSTAR": 0.00023232232,
    "MEAN_MOTION_DOT": 0.00011971,
    "MEAN_MOTION_DDOT": 0
  },
  {
    "OBJECT_NAME": "SL-3 R/B",
    "OBJECT_ID": "1983-075B",
    "EPOCH": "2026-04-08T14:24:28.700352",
    "MEAN_MOTION": 15.39171797,
    "ECCENTRICITY": 0.00230885,
    "INCLINATION": 97.6143,
    "RA_OF_ASC_NODE": 104.3273,
    "ARG_OF_PERICENTER": 120.5347,
    "MEAN_ANOMALY": 239.8181,
    "EPHEMERIS_TYPE": 0,
    "CLASSIFICATION_TYPE": "U",
    "NORAD_CAT_ID": 14208,
    "ELEMENT_SET_NO": 999,
    "REV_AT_EPOCH": 33475,
    "BSTAR": 0.00024579238,
    "MEAN_MOTION_DOT": 9.543e-5,
    "MEAN_MOTION_DDOT": 0
  }
]
